QIANFAN-1               
1 60379U 24140A   25224.70791335  .00000134  00000+0  18906-3 0  9990
2 60379  88.9839 311.9005 0017171 200.6058 159.4402 13.50957862 50870
QIANFAN-2               
1 60380U 24140B   25224.73664778  .00000131  00000+0  18375-3 0  9992
2 60380  88.9825 311.7539 0013537 170.9416 189.1982 13.50964409 50931
QIANFAN-3               
1 60381U 24140C   25224.67077985  .00000137  00000+0  19330-3 0  9992
2 60381  88.9818 311.9022 0014204 183.8392 176.2653 13.50958333 50831
QIANFAN-4               
1 60382U 24140D   25224.72026682  .00000138  00000+0  19566-3 0  9999
2 60382  88.9842 311.7642 0013679 173.6217 186.5110 13.50957972 50967
QIANFAN-5               
1 60383U 24140E   25224.69559115  .00000129  00000+0  18113-3 0  9995
2 60383  88.9817 311.9255 0015017 195.6195 164.4495 13.50961125 50820
QIANFAN-6               
1 60384U 24140F   25224.71609673  .00000134  00000+0  18940-3 0  9998
2 60384  88.9843 311.6371 0013567 179.3534 180.7637 13.50957542 51020
QIANFAN-7               
1 60385U 24140G   25224.71146234  .00000590  00000+0  23397-3 0  9996
2 60385  88.9843 308.0511 0017448  85.2888 275.0299 14.27509741 52983
QIANFAN-8               
1 60386U 24140H   25224.72439090  .00000127  00000+0  17817-3 0  9999
2 60386  88.9845 311.8715 0016903 183.3369 176.7672 13.50961484 50872
